STARLINK-4155           
1 53036U 22076BC  25151.62996216  .00000988  00000+0  80168-4 0  9990
2 53036  53.2175 260.3340 0001208  95.4048 264.7082 15.08840224161002
STARLINK-4153           
1 53037U 22076BD  25151.62628099  .00001480  00000+0  11104-3 0  9993
2 53037  53.2173 260.3522 0001192  89.3179 270.7950 15.08842565161003
STARLINK-4156           
1 53038U 22076BE  25151.55636733  .00000460  00000+0  46981-4 0  9999
2 53038  53.2177 260.6669 0001224  86.4763 273.6370 15.08836627160993
STARLINK-4362           
1 53043U 22077A   25151.76994043  .00000361  00000+0  32680-4 0  9991
2 53043  97.6552 333.6227 0004217  56.1300 304.0325 15.01260522157910
STARLINK-4349           
1 53044U 22077B   25151.49962795  .00000338  00000+0  30933-4 0  9994
2 53044  97.6545 333.3544 0003141  67.6151 292.5406 15.01259228158584
STARLINK-4350           
1 53045U 22077C   25151.50518406  .00000131  00000+0  14775-4 0  9990
2 53045  97.6552 333.3463 0003558  50.6329 309.5210 15.01258475158589
STARLINK-4331           
1 53046U 22077D   25151.77017343  .00001293  00000+0  10522-3 0  9999
2 53046  97.6559 333.6091 0003272  49.3353 310.8155 15.01267724159202
STARLINK-4352           
1 53047U 22077E   25151.48320359 -.00000274  00000+0 -16729-4 0  9998
2 53047  97.6550 333.3572 0000872 100.4566 259.6756 15.01256347158589
STARLINK-4355           
1 53048U 22077F   25151.56281884  .00001047  00000+0  86129-4 0  9995
2 53048  97.6537 333.4131 0002812  64.8165 295.3350 15.01260976158581
STARLINK-4345           
1 53049U 22077G   25151.48851992  .00000626  00000+0  53300-4 0  9997
2 53049  97.6549 333.3400 0001766  99.4420 260.7003 15.01269784158574
STARLINK-4343           
1 53050U 22077H   25151.49407240 -.00000502  00000+0 -34528-4 0  9999
2 53050  97.6540 333.3441 0001670  89.3192 270.8223 15.01256961158579
STARLINK-4336           
1 53051U 22077J   25151.49592789 -.00000448  00000+0 -30312-4 0  9999
2 53051  97.6539 333.3303 0003139  64.0558 296.0989 15.01257908158574
STARLINK-4341           
1 53052U 22077K   25151.49222043  .00000189  00000+0  19325-4 0  9994
2 53052  97.6545 333.3402 0002084  85.6687 274.4775 15.01258207158578
STARLINK-4337           
1 53053U 22077L   25151.48481402 -.00000124  00000+0 -50689-5 0  9990
2 53053  97.6551 333.3301 0000853 118.5519 241.5791 15.01256397158577
