[
  {
    "OBJECT_NAME": "STARLINK-4155",
    "OBJECT_ID": "2022-076BC",
    "EPOCH": "2025-05-31T15:07:08.730624",
    "MEAN_MOTION": 15.08840224,
    "ECCENTRICITY": 0.0001208,
    "INCLINATION": 53.2175,
    "RA_OF_ASC_NODE": 260.334,
    "ARG_OF_PERICENTER": 95.4048,
    "MEAN_ANOMALY": 264.7082,
    "EPHEMERIS_TYPE": 0,
    "CLASSIFICATION_TYPE": "U",
    "NORAD_CAT_ID": 53036,
    "ELEMENT_SET_NO": 999,
    "REV_AT_EPOCH": 16100,
    "BSTAR": 8.0168e-05,
    "MEAN_MOTION_DOT": 9.88e-06,
    "MEAN_MOTION_DDOT": 0
  },
  {
    "OBJECT_NAME": "STARLINK-4153",
    "OBJECT_ID": "2022-076BD",
    "EPOCH": "2025-05-31T15:01:50.677536",
    "MEAN_MOTION": 15.08842565,
    "ECCENTRICITY": 0.0001192,
    "INCLINATION": 53.2173,
    "RA_OF_ASC_NODE": 260.3522,
    "ARG_OF_PERICENTER": 89.3179,
    "MEAN_ANOMALY": 270.795,
    "EPHEMERIS_TYPE": 0,
    "CLASSIFICATION_TYPE": "U",
    "NORAD_CAT_ID": 53037,
    "ELEMENT_SET_NO": 999,
    "REV_AT_EPOCH": 16100,
    "BSTAR": 0.00011104,
    "MEAN_MOTION_DOT": 1.48e-05,
    "MEAN_MOTION_DDOT": 0
  },
  {
    "OBJECT_NAME": "STARLINK-4156",
    "OBJECT_ID": "2022-076BE",
    "EPOCH": "2025-05-31T13:21:10.137312",
    "MEAN_MOTION": 15.08836627,
    "ECCENTRICITY": 0.0001224,
    "INCLINATION": 53.2177,
    "RA_OF_ASC_NODE": 260.6669,
    "ARG_OF_PERICENTER": 86.4763,
    "MEAN_ANOMALY": 273.637,
    "EPHEMERIS_TYPE": 0,
    "CLASSIFICATION_TYPE": "U",
    "NORAD_CAT_ID": 53038,
    "ELEMENT_SET_NO": 999,
    "REV_AT_EPOCH": 16099,
    "BSTAR": 4.6981e-05,
    "MEAN_MOTION_DOT": 4.6e-06,
    "MEAN_MOTION_DDOT": 0
  },
  {
    "OBJECT_NAME": "STARLINK-4362",
    "OBJECT_ID": "2022-077A",
    "EPOCH": "2025-05-31T18:28:42.853152",
    "MEAN_MOTION": 15.01260522,
    "ECCENTRICITY": 0.0004217,
    "INCLINATION": 97.6552,
    "RA_OF_ASC_NODE": 333.6227,
    "ARG_OF_PERICENTER": 56.13,
    "MEAN_ANOMALY": 304.0325,
    "EPHEMERIS_TYPE": 0,
    "CLASSIFICATION_TYPE": "U",
    "NORAD_CAT_ID": 53043,
    "ELEMENT_SET_NO": 999,
    "REV_AT_EPOCH": 15791,
    "BSTAR": 3.268e-05,
    "MEAN_MOTION_DOT": 3.61e-06,
    "MEAN_MOTION_DDOT": 0
  },
  {
    "OBJECT_NAME": "STARLINK-4349",
    "OBJECT_ID": "2022-077B",
    "EPOCH": "2025-05-31T11:59:27.854880",
    "MEAN_MOTION": 15.01259228,
    "ECCENTRICITY": 0.0003141,
    "INCLINATION": 97.6545,
    "RA_OF_ASC_NODE": 333.3544,
    "ARG_OF_PERICENTER": 67.6151,
    "MEAN_ANOMALY": 292.5406,
    "EPHEMERIS_TYPE": 0,
    "CLASSIFICATION_TYPE": "U",
    "NORAD_CAT_ID": 53044,
    "ELEMENT_SET_NO": 999,
    "REV_AT_EPOCH": 15858,
    "BSTAR": 3.0933e-05,
    "MEAN_MOTION_DOT": 3.38e-06,
    "MEAN_MOTION_DDOT": 0
  },
  {
    "OBJECT_NAME": "STARLINK-4350",
    "OBJECT_ID": "2022-077C",
    "EPOCH": "2025-05-31T12:07:27.902784",
    "MEAN_MOTION": 15.01258475,
    "ECCENTRICITY": 0.0003558,
    "INCLINATION": 97.6552,
    "RA_OF_ASC_NODE": 333.3463,
    "ARG_OF_PERICENTER": 50.6329,
    "MEAN_ANOMALY": 309.521,
    "EPHEMERIS_TYPE": 0,
    "CLASSIFICATION_TYPE": "U",
    "NORAD_CAT_ID": 53045,
    "ELEMENT_SET_NO": 999,
    "REV_AT_EPOCH": 15858,
    "BSTAR": 1.4775e-05,
    "MEAN_MOTION_DOT": 1.31e-06,
    "MEAN_MOTION_DDOT": 0
  },
  {
    "OBJECT_NAME": "STARLINK-4331",
    "OBJECT_ID": "2022-077D",
    "EPOCH": "2025-05-31T18:29:02.984352",
    "MEAN_MOTION": 15.01267724,
    "ECCENTRICITY": 0.0003272,
    "INCLINATION": 97.6559,
    "RA_OF_ASC_NODE": 333.6091,
    "ARG_OF_PERICENTER": 49.3353,
    "MEAN_ANOMALY": 310.8155,
    "EPHEMERIS_TYPE": 0,
    "CLASSIFICATION_TYPE": "U",
    "NORAD_CAT_ID": 53046,
    "ELEMENT_SET_NO": 999,
    "REV_AT_EPOCH": 15920,
    "BSTAR": 0.00010522,
    "MEAN_MOTION_DOT": 1.293e-05,
    "MEAN_MOTION_DDOT": 0
  },
  {
    "OBJECT_NAME": "STARLINK-4352",
    "OBJECT_ID": "2022-077E",
    "EPOCH": "2025-05-31T11:35:48.790176",
    "MEAN_MOTION": 15.01256347,
    "ECCENTRICITY": 8.72e-05,
    "INCLINATION": 97.655,
    "RA_OF_ASC_NODE": 333.3572,
    "ARG_OF_PERICENTER": 100.4566,
    "MEAN_ANOMALY": 259.6756,
    "EPHEMERIS_TYPE": 0,
    "CLASSIFICATION_TYPE": "U",
    "NORAD_CAT_ID": 53047,
    "ELEMENT_SET_NO": 999,
    "REV_AT_EPOCH": 15858,
    "BSTAR": -1.6729e-05,
    "MEAN_MOTION_DOT": -2.74e-06,
    "MEAN_MOTION_DDOT": 0
  },
  {
    "OBJECT_NAME": "STARLINK-4355",
    "OBJECT_ID": "2022-077F",
    "EPOCH": "2025-05-31T13:30:27.547776",
    "MEAN_MOTION": 15.01260976,
    "ECCENTRICITY": 0.0002812,
    "INCLINATION": 97.6537,
    "RA_OF_ASC_NODE": 333.4131,
    "ARG_OF_PERICENTER": 64.8165,
    "MEAN_ANOMALY": 295.335,
    "EPHEMERIS_TYPE": 0,
    "CLASSIFICATION_TYPE": "U",
    "NORAD_CAT_ID": 53048,
    "ELEMENT_SET_NO": 999,
    "REV_AT_EPOCH": 15858,
    "BSTAR": 8.6129e-05,
    "MEAN_MOTION_DOT": 1.047e-05,
    "MEAN_MOTION_DDOT": 0
  },
  {
    "OBJECT_NAME": "STARLINK-4345",
    "OBJECT_ID": "2022-077G",
    "EPOCH": "2025-05-31T11:43:28.121088",
    "MEAN_MOTION": 15.01269784,
    "ECCENTRICITY": 0.0001766,
    "INCLINATION": 97.6549,
    "RA_OF_ASC_NODE": 333.34,
    "ARG_OF_PERICENTER": 99.442,
    "MEAN_ANOMALY": 260.7003,
    "EPHEMERIS_TYPE": 0,
    "CLASSIFICATION_TYPE": "U",
    "NORAD_CAT_ID": 53049,
    "ELEMENT_SET_NO": 999,
    "REV_AT_EPOCH": 15857,
    "BSTAR": 5.33e-05,
    "MEAN_MOTION_DOT": 6.26e-06,
    "MEAN_MOTION_DDOT": 0
  },
  {
    "OBJECT_NAME": "STARLINK-4343",
    "OBJECT_ID": "2022-077H",
    "EPOCH": "2025-05-31T11:51:27.855360",
    "MEAN_MOTION": 15.01256961,
    "ECCENTRICITY": 0.000167,
    "INCLINATION": 97.654,
    "RA_OF_ASC_NODE": 333.3441,
    "ARG_OF_PERICENTER": 89.3192,
    "MEAN_ANOMALY": 270.8223,
    "EPHEMERIS_TYPE": 0,
    "CLASSIFICATION_TYPE": "U",
    "NORAD_CAT_ID": 53050,
    "ELEMENT_SET_NO": 999,
    "REV_AT_EPOCH": 15857,
    "BSTAR": -3.4528e-05,
    "MEAN_MOTION_DOT": -5.02e-06,
    "MEAN_MOTION_DDOT": 0
  },
  {
    "OBJECT_NAME": "STARLINK-4336",
    "OBJECT_ID": "2022-077J",
    "EPOCH": "2025-05-31T11:54:08.169696",
    "MEAN_MOTION": 15.01257908,
    "ECCENTRICITY": 0.0003139,
    "INCLINATION": 97.6539,
    "RA_OF_ASC_NODE": 333.3303,
    "ARG_OF_PERICENTER": 64.0558,
    "MEAN_ANOMALY": 296.0989,
    "EPHEMERIS_TYPE": 0,
    "CLASSIFICATION_TYPE": "U",
    "NORAD_CAT_ID": 53051,
    "ELEMENT_SET_NO": 999,
    "REV_AT_EPOCH": 15857,
    "BSTAR": -3.0312e-05,
    "MEAN_MOTION_DOT": -4.48e-06,
    "MEAN_MOTION_DDOT": 0
  },
  {
    "OBJECT_NAME": "STARLINK-4341",
    "OBJECT_ID": "2022-077K",
    "EPOCH": "2025-05-31T11:48:47.845152",
    "MEAN_MOTION": 15.01258207,
    "ECCENTRICITY": 0.0002084,
    "INCLINATION": 97.6545,
    "RA_OF_ASC_NODE": 333.3402,
    "ARG_OF_PERICENTER": 85.6687,
    "MEAN_ANOMALY": 274.4775,
    "EPHEMERIS_TYPE": 0,
    "CLASSIFICATION_TYPE": "U",
    "NORAD_CAT_ID": 53052,
    "ELEMENT_SET_NO": 999,
    "REV_AT_EPOCH": 15857,
    "BSTAR": 1.9325e-05,
    "MEAN_MOTION_DOT": 1.89e-06,
    "MEAN_MOTION_DDOT": 0
  },
  {
    "OBJECT_NAME": "STARLINK-4337",
    "OBJECT_ID": "2022-077L",
    "EPOCH": "2025-05-31T11:38:07.931328",
    "MEAN_MOTION": 15.01256397,
    "ECCENTRICITY": 8.53e-05,
    "INCLINATION": 97.6551,
    "RA_OF_ASC_NODE": 333.3301,
    "ARG_OF_PERICENTER": 118.5519,
    "MEAN_ANOMALY": 241.5791,
    "EPHEMERIS_TYPE": 0,
    "CLASSIFICATION_TYPE": "U",
    "NORAD_CAT_ID": 53053,
    "ELEMENT_SET_NO": 999,
    "REV_AT_EPOCH": 15857,
    "BSTAR": -5.0689e-06,
    "MEAN_MOTION_DOT": -1.24e-06,
    "MEAN_MOTION_DDOT": 0
  }
]